[{"OBJECT_NAME":"SKYSAT-C18","OBJECT_ID":"2020-057BR","EPOCH":"2020-09-08T14:26:26.976768","MEAN_MOTION":15.88100276,"ECCENTRICITY":0.0066045,"INCLINATION":52.9995,"RA_OF_ASC_NODE":335.0923,"ARG_OF_PERICENTER":117.4856,"MEAN_ANOMALY":243.2902,"EPHEMERIS_TYPE":0,"CLASSIFICATION_TYPE":"U","NORAD_CAT_ID":46180,"ELEMENT_SET_NO":999,"REV_AT_EPOCH":297,"BSTAR":9.8933e-5,"MEAN_MOTION_DOT":0.00029921,"MEAN_MOTION_DDOT":1.1404e-5},{"OBJECT_NAME":"2020-058A","OBJECT_ID":"2020-058A","EPOCH":"2020-09-09T05:25:18.787296","MEAN_MOTION":15.23941956,"ECCENTRICITY":0.001674,"INCLINATION":97.5023,"RA_OF_ASC_NODE":300.7399,"ARG_OF_PERICENTER":202.956,"MEAN_ANOMALY":197.4716,"EPHEMERIS_TYPE":0,"CLASSIFICATION_TYPE":"U","NORAD_CAT_ID":46232,"ELEMENT_SET_NO":999,"REV_AT_EPOCH":260,"BSTAR":0,"MEAN_MOTION_DOT":-7.4e-7,"MEAN_MOTION_DDOT":0},{"OBJECT_NAME":"2020-058B","OBJECT_ID":"2020-058B","EPOCH":"2020-09-09T02:24:15.952896","MEAN_MOTION":15.24055692,"ECCENTRICITY":0.0015563,"INCLINATION":97.5023,"RA_OF_ASC_NODE":300.6191,"ARG_OF_PERICENTER":206.1178,"MEAN_ANOMALY":237.6035,"EPHEMERIS_TYPE":0,"CLASSIFICATION_TYPE":"U","NORAD_CAT_ID":46233,"ELEMENT_SET_NO":999,"REV_AT_EPOCH":257,"BSTAR":4.773e-5,"MEAN_MOTION_DOT":1.088e-5,"MEAN_MOTION_DDOT":0},{"OBJECT_NAME":"SKYSAT-C19","OBJECT_ID":"2020-057BS","EPOCH":"2020-09-08T17:48:51.153408","MEAN_MOTION":15.75831309,"ECCENTRICITY":0.0016575,"INCLINATION":53.0004,"RA_OF_ASC_NODE":334.5505,"ARG_OF_PERICENTER":68.994,"MEAN_ANOMALY":291.285,"EPHEMERIS_TYPE":0,"CLASSIFICATION_TYPE":"U","NORAD_CAT_ID":46235,"ELEMENT_SET_NO":999,"REV_AT_EPOCH":299,"BSTAR":5.9671e-5,"MEAN_MOTION_DOT":8.806e-5,"MEAN_MOTION_DDOT":0},{"OBJECT_NAME":"FALCON 9 DEB","OBJECT_ID":"2020-057BT","EPOCH":"2020-09-09T04:43:52.631616","MEAN_MOTION":16.10072531,"ECCENTRICITY":0.007022,"INCLINATION":52.9978,"RA_OF_ASC_NODE":330.156,"ARG_OF_PERICENTER":122.028,"MEAN_ANOMALY":238.76,"EPHEMERIS_TYPE":0,"CLASSIFICATION_TYPE":"U","NORAD_CAT_ID":46236,"ELEMENT_SET_NO":999,"REV_AT_EPOCH":347,"BSTAR":0.00032101,"MEAN_MOTION_DOT":0.00460922,"MEAN_MOTION_DDOT":1.159e-5},{"OBJECT_NAME":"2020-059A","OBJECT_ID":"2020-059A","EPOCH":"2020-09-09T05:41:59.828928","MEAN_MOTION":14.863932,"ECCENTRICITY":0.0004501,"INCLINATION":97.8803,"RA_OF_ASC_NODE":76.9884,"ARG_OF_PERICENTER":138.2461,"MEAN_ANOMALY":222.0642,"EPHEMERIS_TYPE":0,"CLASSIFICATION_TYPE":"U","NORAD_CAT_ID":46265,"ELEMENT_SET_NO":999,"REV_AT_EPOCH":137,"BSTAR":0.0054017,"MEAN_MOTION_DOT":0.00047927,"MEAN_MOTION_DDOT":0},{"OBJECT_NAME":"2020-059B","OBJECT_ID":"2020-059B","EPOCH":"2020-09-08T18:11:29.619744","MEAN_MOTION":14.87884079,"ECCENTRICITY":0.0006436,"INCLINATION":97.8846,"RA_OF_ASC_NODE":76.5393,"ARG_OF_PERICENTER":108.433,"MEAN_ANOMALY":251.7591,"EPHEMERIS_TYPE":0,"CLASSIFICATION_TYPE":"U","NORAD_CAT_ID":46266,"ELEMENT_SET_NO":999,"REV_AT_EPOCH":130,"BSTAR":3.8237e-5,"MEAN_MOTION_DOT":2.95e-6,"MEAN_MOTION_DDOT":0},{"OBJECT_NAME":"2020-059C","OBJECT_ID":"2020-059C","EPOCH":"2020-09-08T18:09:07.613568","MEAN_MOTION":14.88164974,"ECCENTRICITY":0.0007476,"INCLINATION":97.872,"RA_OF_ASC_NODE":76.5287,"ARG_OF_PERICENTER":115.1176,"MEAN_ANOMALY":245.0826,"EPHEMERIS_TYPE":0,"CLASSIFICATION_TYPE":"U","NORAD_CAT_ID":46267,"ELEMENT_SET_NO":999,"REV_AT_EPOCH":129,"BSTAR":4.1829e-5,"MEAN_MOTION_DOT":3.3e-6,"MEAN_MOTION_DDOT":0},{"OBJECT_NAME":"CAPELLA-2","OBJECT_ID":"2020-060B","EPOCH":"2020-09-08T19:45:57.334464","MEAN_MOTION":15.09254134,"ECCENTRICITY":0.0011131,"INCLINATION":45.103,"RA_OF_ASC_NODE":285.0636,"ARG_OF_PERICENTER":317.5918,"MEAN_ANOMALY":42.4095,"EPHEMERIS_TYPE":0,"CLASSIFICATION_TYPE":"U","NORAD_CAT_ID":46269,"ELEMENT_SET_NO":999,"REV_AT_EPOCH":131,"BSTAR":2.3873e-5,"MEAN_MOTION_DOT":1.35e-6,"MEAN_MOTION_DDOT":0},{"OBJECT_NAME":"NUSAT-6 (HYPATIA)","OBJECT_ID":"2020-061A","EPOCH":"2020-09-08T19:46:57.503424","MEAN_MOTION":15.15060911,"ECCENTRICITY":0.0006079,"INCLINATION":97.4681,"RA_OF_ASC_NODE":325.8157,"ARG_OF_PERICENTER":198.5434,"MEAN_ANOMALY":161.5578,"EPHEMERIS_TYPE":0,"CLASSIFICATION_TYPE":"U","NORAD_CAT_ID":46272,"ELEMENT_SET_NO":999,"REV_AT_EPOCH":86,"BSTAR":2.2708e-5,"MEAN_MOTION_DOT":3.59e-6,"MEAN_MOTION_DDOT":0},{"OBJECT_NAME":"2020-061B","OBJECT_ID":"2020-061B","EPOCH":"2020-09-09T03:41:55.852224","MEAN_MOTION":15.15158044,"ECCENTRICITY":0.000566,"INCLINATION":97.4681,"RA_OF_ASC_NODE":326.1406,"ARG_OF_PERICENTER":197.7023,"MEAN_ANOMALY":162.4013,"EPHEMERIS_TYPE":0,"CLASSIFICATION_TYPE":"U","NORAD_CAT_ID":46273,"ELEMENT_SET_NO":999,"REV_AT_EPOCH":91,"BSTAR":1.6477e-5,"MEAN_MOTION_DOT":2.44e-6,"MEAN_MOTION_DDOT":0}]
